LOBACHEVSKY (RS83S)     
1 67284U 25313AN  26026.22933607  .00010031  00000+0  45226-3 0  9995
2 67284  97.4073 103.2197 0012096 133.3971 226.8274 15.21158819  4362
NASBSAT-2               
1 67285U 25313AP  26026.22536268  .00013091  00000+0  58288-3 0  9999
2 67285  97.4066 103.2217 0011605 134.7042 225.5141 15.21523382  4367
MULE 4T                 
1 67286U 25313AQ  26026.15902831  .00015802  00000+0  70252-3 0  9992
2 67286  97.4087 103.1743 0011251 130.3136 229.9085 15.21537481  4356
LUCA (RS90S)            
1 67287U 25313AR  26026.09169992  .00016808  00000+0  74380-3 0  9992
2 67287  97.4086 103.1121 0011164 132.2197 227.9988 15.21683072  4344
2025-313AS              
1 67288U 25313AS  26026.22546824  .00010061  00000+0  45000-3 0  9993
2 67288  97.4076 103.2332 0013058 124.6990 235.5478 15.21420164  4361
NASBSAT-1               
1 67289U 25313AT  26026.28637688  .00021451  00000+0  93988-3 0  9992
2 67289  97.4088 103.3104 0010927 131.7505 228.4667 15.21973640  4370
SAKHACUBE-CHOLBON (RS1*)
1 67290U 25313AU  26026.15585380  .00018055  00000+0  79600-3 0  9992
2 67290  97.4085 103.1793 0010847 131.3782 228.8389 15.21798519  4358
QMR-KWT-2 (RS95S)       
1 67291U 25313AV  26026.28609212  .00021933  00000+0  96066-3 0  9992
2 67291  97.4086 103.3103 0010649 130.9426 229.2734 15.21983498  4370
SITRO-AIS-64            
1 67292U 25313AW  26026.28557701  .00017166  00000+0  75481-3 0  9999
2 67292  97.4090 103.3127 0010542 130.6912 229.5242 15.21902296  4375
SCORPION (RS89S)        
1 67293U 25313AX  26026.28901957  .00007531  00000+0  33718-3 0  9998
2 67293  97.4087 103.3041 0012574 122.4943 237.7510 15.21481840  4373
SITRO-AIS-63            
1 67294U 25313AY  26026.28479704  .00016298  00000+0  71619-3 0  9991
2 67294  97.4093 103.3146 0010432 130.9367 229.2774 15.21936936  4371
ZORKIY-2M-5             
1 67295U 25313AZ  26026.28524225  .00012879  00000+0  56809-3 0  9996
2 67295  97.4086 103.3089 0011937 122.2186 238.0209 15.21846476  4374
