CCSDS_OMM_VERS = 2.0
CREATION_DATE  = 
ORIGINATOR     = 

OBJECT_NAME    = LOBACHEVSKY (RS83S)
OBJECT_ID      = 2025-313AN
CENTER_NAME    = EARTH
REF_FRAME      = TEME
TIME_SYSTEM    = UTC
MEAN_ELEMENT_THEORY = SGP/SGP4

EPOCH          = 2026-01-26T05:30:14.636448
MEAN_MOTION    = 15.21158819
ECCENTRICITY   = .00120962
INCLINATION    = 97.4073
RA_OF_ASC_NODE = 103.2197
ARG_OF_PERICENTER = 133.3971
MEAN_ANOMALY   = 226.8274

EPHEMERIS_TYPE = 0
CLASSIFICATION_TYPE = U
NORAD_CAT_ID   = 67284
ELEMENT_SET_NO = 999
REV_AT_EPOCH   = 436
BSTAR          = .4522626E-3
MEAN_MOTION_DOT = .10031E-3
MEAN_MOTION_DDOT = 0

CCSDS_OMM_VERS = 2.0
CREATION_DATE  = 
ORIGINATOR     = 

OBJECT_NAME    = NASBSAT-2
OBJECT_ID      = 2025-313AP
CENTER_NAME    = EARTH
REF_FRAME      = TEME
TIME_SYSTEM    = UTC
MEAN_ELEMENT_THEORY = SGP/SGP4

EPOCH          = 2026-01-26T05:24:31.335552
MEAN_MOTION    = 15.21523382
ECCENTRICITY   = .00116057
INCLINATION    = 97.4066
RA_OF_ASC_NODE = 103.2217
ARG_OF_PERICENTER = 134.7042
MEAN_ANOMALY   = 225.5141

EPHEMERIS_TYPE = 0
CLASSIFICATION_TYPE = U
NORAD_CAT_ID   = 67285
ELEMENT_SET_NO = 999
REV_AT_EPOCH   = 436
BSTAR          = .58287833E-3
MEAN_MOTION_DOT = .13091E-3
MEAN_MOTION_DDOT = 0

CCSDS_OMM_VERS = 2.0
CREATION_DATE  = 
ORIGINATOR     = 

OBJECT_NAME    = MULE 4T
OBJECT_ID      = 2025-313AQ
CENTER_NAME    = EARTH
REF_FRAME      = TEME
TIME_SYSTEM    = UTC
MEAN_ELEMENT_THEORY = SGP/SGP4

EPOCH          = 2026-01-26T03:49:00.045984
MEAN_MOTION    = 15.21537481
ECCENTRICITY   = .00112511
INCLINATION    = 97.4087
RA_OF_ASC_NODE = 103.1743
ARG_OF_PERICENTER = 130.3136
MEAN_ANOMALY   = 229.9085

EPHEMERIS_TYPE = 0
CLASSIFICATION_TYPE = U
NORAD_CAT_ID   = 67286
ELEMENT_SET_NO = 999
REV_AT_EPOCH   = 435
BSTAR          = .70252035E-3
MEAN_MOTION_DOT = .15802E-3
MEAN_MOTION_DDOT = 0

CCSDS_OMM_VERS = 2.0
CREATION_DATE  = 
ORIGINATOR     = 

OBJECT_NAME    = LUCA (RS90S)
OBJECT_ID      = 2025-313AR
CENTER_NAME    = EARTH
REF_FRAME      = TEME
TIME_SYSTEM    = UTC
MEAN_ELEMENT_THEORY = SGP/SGP4

EPOCH          = 2026-01-26T02:12:02.873088
MEAN_MOTION    = 15.21683072
ECCENTRICITY   = .00111644
INCLINATION    = 97.4086
RA_OF_ASC_NODE = 103.1121
ARG_OF_PERICENTER = 132.2197
MEAN_ANOMALY   = 227.9988

EPHEMERIS_TYPE = 0
CLASSIFICATION_TYPE = U
NORAD_CAT_ID   = 67287
ELEMENT_SET_NO = 999
REV_AT_EPOCH   = 434
BSTAR          = .7437957E-3
MEAN_MOTION_DOT = .16808E-3
MEAN_MOTION_DDOT = 0

CCSDS_OMM_VERS = 2.0
CREATION_DATE  = 
ORIGINATOR     = 

OBJECT_NAME    = 2025-313AS
OBJECT_ID      = 2025-313AS
CENTER_NAME    = EARTH
REF_FRAME      = TEME
TIME_SYSTEM    = UTC
MEAN_ELEMENT_THEORY = SGP/SGP4

EPOCH          = 2026-01-26T05:24:40.455936
MEAN_MOTION    = 15.21420164
ECCENTRICITY   = .00130588
INCLINATION    = 97.4076
RA_OF_ASC_NODE = 103.2332
ARG_OF_PERICENTER = 124.6990
MEAN_ANOMALY   = 235.5478

EPHEMERIS_TYPE = 0
CLASSIFICATION_TYPE = U
NORAD_CAT_ID   = 67288
ELEMENT_SET_NO = 999
REV_AT_EPOCH   = 436
BSTAR          = .45000415E-3
MEAN_MOTION_DOT = .10061E-3
MEAN_MOTION_DDOT = 0

CCSDS_OMM_VERS = 2.0
CREATION_DATE  = 
ORIGINATOR     = 

OBJECT_NAME    = NASBSAT-1
OBJECT_ID      = 2025-313AT
CENTER_NAME    = EARTH
REF_FRAME      = TEME
TIME_SYSTEM    = UTC
MEAN_ELEMENT_THEORY = SGP/SGP4

EPOCH          = 2026-01-26T06:52:22.962432
MEAN_MOTION    = 15.21973640
ECCENTRICITY   = .00109276
INCLINATION    = 97.4088
RA_OF_ASC_NODE = 103.3104
ARG_OF_PERICENTER = 131.7505
MEAN_ANOMALY   = 228.4667

EPHEMERIS_TYPE = 0
CLASSIFICATION_TYPE = U
NORAD_CAT_ID   = 67289
ELEMENT_SET_NO = 999
REV_AT_EPOCH   = 437
BSTAR          = .93988112E-3
MEAN_MOTION_DOT = .21451E-3
MEAN_MOTION_DDOT = 0

CCSDS_OMM_VERS = 2.0
CREATION_DATE  = 
ORIGINATOR     = 

OBJECT_NAME    = SAKHACUBE-CHOLBON (RS18S)
OBJECT_ID      = 2025-313AU
CENTER_NAME    = EARTH
REF_FRAME      = TEME
TIME_SYSTEM    = UTC
MEAN_ELEMENT_THEORY = SGP/SGP4

EPOCH          = 2026-01-26T03:44:25.768320
MEAN_MOTION    = 15.21798519
ECCENTRICITY   = .00108475
INCLINATION    = 97.4085
RA_OF_ASC_NODE = 103.1793
ARG_OF_PERICENTER = 131.3782
MEAN_ANOMALY   = 228.8389

EPHEMERIS_TYPE = 0
CLASSIFICATION_TYPE = U
NORAD_CAT_ID   = 67290
ELEMENT_SET_NO = 999
REV_AT_EPOCH   = 435
BSTAR          = .79599834E-3
MEAN_MOTION_DOT = .18055E-3
MEAN_MOTION_DDOT = 0

CCSDS_OMM_VERS = 2.0
CREATION_DATE  = 
ORIGINATOR     = 

OBJECT_NAME    = QMR-KWT-2 (RS95S)
OBJECT_ID      = 2025-313AV
CENTER_NAME    = EARTH
REF_FRAME      = TEME
TIME_SYSTEM    = UTC
MEAN_ELEMENT_THEORY = SGP/SGP4

EPOCH          = 2026-01-26T06:51:58.359168
MEAN_MOTION    = 15.21983498
ECCENTRICITY   = .00106492
INCLINATION    = 97.4086
RA_OF_ASC_NODE = 103.3103
ARG_OF_PERICENTER = 130.9426
MEAN_ANOMALY   = 229.2734

EPHEMERIS_TYPE = 0
CLASSIFICATION_TYPE = U
NORAD_CAT_ID   = 67291
ELEMENT_SET_NO = 999
REV_AT_EPOCH   = 437
BSTAR          = .96066166E-3
MEAN_MOTION_DOT = .21933E-3
MEAN_MOTION_DDOT = 0

CCSDS_OMM_VERS = 2.0
CREATION_DATE  = 
ORIGINATOR     = 

OBJECT_NAME    = SITRO-AIS-64
OBJECT_ID      = 2025-313AW
CENTER_NAME    = EARTH
REF_FRAME      = TEME
TIME_SYSTEM    = UTC
MEAN_ELEMENT_THEORY = SGP/SGP4

EPOCH          = 2026-01-26T06:51:13.853664
MEAN_MOTION    = 15.21902296
ECCENTRICITY   = .0010542
INCLINATION    = 97.4090
RA_OF_ASC_NODE = 103.3127
ARG_OF_PERICENTER = 130.6912
MEAN_ANOMALY   = 229.5242

EPHEMERIS_TYPE = 0
CLASSIFICATION_TYPE = U
NORAD_CAT_ID   = 67292
ELEMENT_SET_NO = 999
REV_AT_EPOCH   = 437
BSTAR          = .75480603E-3
MEAN_MOTION_DOT = .17166E-3
MEAN_MOTION_DDOT = 0

CCSDS_OMM_VERS = 2.0
CREATION_DATE  = 
ORIGINATOR     = 

OBJECT_NAME    = SCORPION (RS89S)
OBJECT_ID      = 2025-313AX
CENTER_NAME    = EARTH
REF_FRAME      = TEME
TIME_SYSTEM    = UTC
MEAN_ELEMENT_THEORY = SGP/SGP4

EPOCH          = 2026-01-26T06:56:11.290848
MEAN_MOTION    = 15.21481840
ECCENTRICITY   = .00125749
INCLINATION    = 97.4087
RA_OF_ASC_NODE = 103.3041
ARG_OF_PERICENTER = 122.4943
MEAN_ANOMALY   = 237.7510

EPHEMERIS_TYPE = 0
CLASSIFICATION_TYPE = U
NORAD_CAT_ID   = 67293
ELEMENT_SET_NO = 999
REV_AT_EPOCH   = 437
BSTAR          = .33717795E-3
MEAN_MOTION_DOT = .7531E-4
MEAN_MOTION_DDOT = 0

CCSDS_OMM_VERS = 2.0
CREATION_DATE  = 
ORIGINATOR     = 

OBJECT_NAME    = SITRO-AIS-63
OBJECT_ID      = 2025-313AY
CENTER_NAME    = EARTH
REF_FRAME      = TEME
TIME_SYSTEM    = UTC
MEAN_ELEMENT_THEORY = SGP/SGP4

EPOCH          = 2026-01-26T06:50:06.464256
MEAN_MOTION    = 15.21936936
ECCENTRICITY   = .00104323
INCLINATION    = 97.4093
RA_OF_ASC_NODE = 103.3146
ARG_OF_PERICENTER = 130.9367
MEAN_ANOMALY   = 229.2774

EPHEMERIS_TYPE = 0
CLASSIFICATION_TYPE = U
NORAD_CAT_ID   = 67294
ELEMENT_SET_NO = 999
REV_AT_EPOCH   = 437
BSTAR          = .71618945E-3
MEAN_MOTION_DOT = .16298E-3
MEAN_MOTION_DDOT = 0

CCSDS_OMM_VERS = 2.0
CREATION_DATE  = 
ORIGINATOR     = 

OBJECT_NAME    = ZORKIY-2M-5
OBJECT_ID      = 2025-313AZ
CENTER_NAME    = EARTH
REF_FRAME      = TEME
TIME_SYSTEM    = UTC
MEAN_ELEMENT_THEORY = SGP/SGP4

EPOCH          = 2026-01-26T06:50:44.930400
MEAN_MOTION    = 15.21846476
ECCENTRICITY   = .00119378
INCLINATION    = 97.4086
RA_OF_ASC_NODE = 103.3089
ARG_OF_PERICENTER = 122.2186
MEAN_ANOMALY   = 238.0209

EPHEMERIS_TYPE = 0
CLASSIFICATION_TYPE = U
NORAD_CAT_ID   = 67295
ELEMENT_SET_NO = 999
REV_AT_EPOCH   = 437
BSTAR          = .56808548E-3
MEAN_MOTION_DOT = .12879E-3
MEAN_MOTION_DDOT = 0

